[{"OBJECT_NAME":"STARLINK-30782","OBJECT_ID":"2023-162V","EPOCH":"2026-03-09T22:00:01.999584","MEAN_MOTION":15.26696154,"ECCENTRICITY":9.959e-5,"INCLINATION":43,"RA_OF_ASC_NODE":131.028,"ARG_OF_PERICENTER":232.3366,"MEAN_ANOMALY":133.0133,"EPHEMERIS_TYPE":0,"CLASSIFICATION_TYPE":"U","NORAD_CAT_ID":58137,"ELEMENT_SET_NO":999,"REV_AT_EPOCH":568,"BSTAR":0.00090431555,"MEAN_MOTION_DOT":0.00024044,"MEAN_MOTION_DDOT":0},{"OBJECT_NAME":"FLOCK 4G-12","OBJECT_ID":"2025-009S","EPOCH":"2026-03-09T17:16:21.445824","MEAN_MOTION":15.27059194,"ECCENTRICITY":0.00028933,"INCLINATION":97.4059,"RA_OF_ASC_NODE":151.1894,"ARG_OF_PERICENTER":310.1775,"MEAN_ANOMALY":49.9211,"EPHEMERIS_TYPE":0,"CLASSIFICATION_TYPE":"U","NORAD_CAT_ID":62625,"ELEMENT_SET_NO":999,"REV_AT_EPOCH":6371,"BSTAR":0.00043519262,"MEAN_MOTION_DOT":0.00011487,"MEAN_MOTION_DDOT":0}]
